******** Week 255 almanac for PRN-02 ********
ID:                         02
Health:                     000
Eccentricity:               0.1617145538E-001
Time of Applicability(s):  61440.0000
Orbital Inclination(rad):   0.9678064554
Rate of Right Ascen(r/s):  -0.7623174679E-008
SQRT(A)  (m 1/2):           5153.669922
Right Ascen at Week(rad):  -0.2715539227E+001
Argument of Perigee(rad):  -1.232507873
Mean Anom(rad):             0.1079525123E+001
Af0(s):                    -0.4796981812E-003
Af1(s/s):                   0.7275957614E-011
week:                        255

******** Week 255 almanac for PRN-03 ********
ID:                         03
Health:                     000
Eccentricity:               0.5126476288E-002
Time of Applicability(s):  61440.0000
Orbital Inclination(rad):   0.9826788785
Rate of Right Ascen(r/s):  -0.8046049436E-008
SQRT(A)  (m 1/2):           5153.718750
Right Ascen at Week(rad):  -0.1582350992E+001
Argument of Perigee(rad):   1.065261274
Mean Anom(rad):            -0.2452510208E+001
Af0(s):                     0.2155303955E-003
Af1(s/s):                   0.2182787284E-010
week:                        255

******** Week 255 almanac for PRN-04 ********
ID:                         04
Health:                     000
Eccentricity:               0.2840042114E-002
Time of Applicability(s):  61440.0000
Orbital Inclination(rad):   0.9646246437
Rate of Right Ascen(r/s):  -0.7931758961E-008
SQRT(A)  (m 1/2):           5153.532715
Right Ascen at Week(rad):  -0.5026281297E+000
Argument of Perigee(rad):  -2.966520730
Mean Anom(rad):             0.5009121385E+000
Af0(s):                     0.3004074097E-003
Af1(s/s):                   0.1091393642E-010
week:                        255

******** Week 255 almanac for PRN-05 ********
ID:                         05
Health:                     000
Eccentricity:               0.5669593811E-002
Time of Applicability(s):  61440.0000
Orbital Inclination(rad):   0.9696759945
Rate of Right Ascen(r/s):  -0.8160339911E-008
SQRT(A)  (m 1/2):           5153.510742
Right Ascen at Week(rad):  -0.1632511340E+001
Argument of Perigee(rad):   1.230817348
Mean Anom(rad):             0.1111135388E+001
Af0(s):                    -0.1630783081E-003
Af1(s/s):                   0.0000000000E+000
week:                        255

******** Week 255 almanac for PRN-06 ********
ID:                         06
Health:                     000
Eccentricity:               0.3150463104E-002
Time of Applicability(s):  61440.0000
Orbital Inclination(rad):   0.9899473109
Rate of Right Ascen(r/s):  -0.7463168014E-008
SQRT(A)  (m 1/2):           5153.532715
Right Ascen at Week(rad):  -0.2619316762E+001
Argument of Perigee(rad):  -0.755377680
Mean Anom(rad):            -0.1186026682E+001
Af0(s):                     0.3929138184E-003
Af1(s/s):                  -0.1455191523E-010
week:                        255

******** Week 255 almanac for PRN-07 ********
ID:                         07
Health:                     000
Eccentricity:               0.1801204681E-001
Time of Applicability(s):  61440.0000
Orbital Inclination(rad):   0.9506450453
Rate of Right Ascen(r/s):  -0.7760323249E-008
SQRT(A)  (m 1/2):           5153.620117
Right Ascen at Week(rad):   0.5102980337E+000
Argument of Perigee(rad):  -2.148073819
Mean Anom(rad):            -0.2069426968E+001
Af0(s):                    -0.7057189941E-004
Af1(s/s):                  -0.7275957614E-011
week:                        255

******** Week 255 almanac for PRN-08 ********
ID:                         08
Health:                     063
Eccentricity:               0.9391307831E-002
Time of Applicability(s):  61440.0000
Orbital Inclination(rad):   0.9545878553
Rate of Right Ascen(r/s):  -0.7988904198E-008
SQRT(A)  (m 1/2):           5153.538574
Right Ascen at Week(rad):   0.2572125506E+001
Argument of Perigee(rad):   0.327788026
Mean Anom(rad):             0.7634921238E+000
Af0(s):                     0.9536743164E-005
Af1(s/s):                   0.3274180926E-010
week:                        255

******** Week 255 almanac for PRN-09 ********
ID:                         09
Health:                     000
Eccentricity:               0.2751350403E-002
Time of Applicability(s):  61440.0000
Orbital Inclination(rad):   0.9580872490
Rate of Right Ascen(r/s):  -0.8046049436E-008
SQRT(A)  (m 1/2):           5153.667480
Right Ascen at Week(rad):  -0.5614306017E+000
Argument of Perigee(rad):   2.012331125
Mean Anom(rad):             0.1214132311E+001
Af0(s):                     0.1039505005E-003
Af1(s/s):                   0.1455191523E-010
week:                        255

******** Week 255 almanac for PRN-10 ********
ID:                         10
Health:                     000
Eccentricity:               0.9306430817E-002
Time of Applicability(s):  61440.0000
Orbital Inclination(rad):   0.9823612966
Rate of Right Ascen(r/s):  -0.8034620388E-008
SQRT(A)  (m 1/2):           5153.634277
Right Ascen at Week(rad):  -0.1584927226E+001
Argument of Perigee(rad):  -2.371933523
Mean Anom(rad):             0.2765412702E+001
Af0(s):                     0.9536743164E-006
Af1(s/s):                   0.0000000000E+000
week:                        255

******** Week 255 almanac for PRN-11 ********
ID:                         11
Health:                     000
Eccentricity:               0.1232147217E-002
Time of Applicability(s):  61440.0000
Orbital Inclination(rad):   0.9663683484
Rate of Right Ascen(r/s):  -0.7714607059E-008
SQRT(A)  (m 1/2):           5153.625488
Right Ascen at Week(rad):  -0.2584219835E+001
Argument of Perigee(rad):  -2.470508266
Mean Anom(rad):            -0.2120084287E-001
Af0(s):                    -0.5874633789E-003
Af1(s/s):                  -0.1091393642E-010
week:                        255

******** Week 255 almanac for PRN-12 ********
ID:                         12
Health:                     000
Eccentricity:               0.8977890015E-002
Time of Applicability(s):  61440.0000
Orbital Inclination(rad):   0.9626592308
Rate of Right Ascen(r/s):  -0.8148910863E-008
SQRT(A)  (m 1/2):           5153.638184
Right Ascen at Week(rad):   0.1625963834E+001
Argument of Perigee(rad):   1.417993340
Mean Anom(rad):            -0.2780610947E+001
Af0(s):                    -0.4816055298E-003
Af1(s/s):                  -0.3637978807E-011
week:                        255

******** Week 255 almanac for PRN-13 ********
ID:                         13
Health:                     000
Eccentricity:               0.7820606232E-002
Time of Applicability(s):  61440.0000
Orbital Inclination(rad):   0.9713657702
Rate of Right Ascen(r/s):  -0.7794610391E-008
SQRT(A)  (m 1/2):           5153.614258
Right Ascen at Week(rad):  -0.3969504855E+000
Argument of Perigee(rad):   0.935741388
Mean Anom(rad):             0.4766306008E+000
Af0(s):                     0.6284713745E-003
Af1(s/s):                   0.3637978807E-011
week:                        255

******** Week 255 almanac for PRN-14 ********
ID:                         14
Health:                     000
Eccentricity:               0.4018306732E-002
Time of Applicability(s):  61440.0000
Orbital Inclination(rad):   0.9460011582
Rate of Right Ascen(r/s):  -0.8320346576E-008
SQRT(A)  (m 1/2):           5153.625000
Right Ascen at Week(rad):   0.1582934474E+001
Argument of Perigee(rad):  -2.961673111
Mean Anom(rad):            -0.2763466389E+001
Af0(s):                     0.3347396851E-003
Af1(s/s):                   0.1091393642E-010
week:                        255

******** Week 255 almanac for PRN-15 ********
ID:                         15
Health:                     000
Eccentricity:               0.1545953751E-001
Time of Applicability(s):  61440.0000
Orbital Inclination(rad):   0.9347120183
Rate of Right Ascen(r/s):  -0.8320346576E-008
SQRT(A)  (m 1/2):           5153.554688
Right Ascen at Week(rad):  -0.6869443852E+000
Argument of Perigee(rad):   1.292133886
Mean Anom(rad):            -0.1928273022E+000
Af0(s):                     0.1316070557E-003
Af1(s/s):                   0.3637978807E-011
week:                        255

******** Week 255 almanac for PRN-16 ********
ID:                         16
Health:                     000
Eccentricity:               0.1401185989E-001
Time of Applicability(s):  61440.0000
Orbital Inclination(rad):   0.9621918460
Rate of Right Ascen(r/s):  -0.8148910863E-008
SQRT(A)  (m 1/2):           5153.675781
Right Ascen at Week(rad):   0.1643940545E+001
Argument of Perigee(rad):   0.827979238
Mean Anom(rad):             0.1746450609E+001
Af0(s):                    -0.3547668457E-003
Af1(s/s):                   0.7275957614E-011
week:                        255

******** Week 255 almanac for PRN-17 ********
ID:                         17
Health:                     000
Eccentricity:               0.1351308823E-001
Time of Applicability(s):  61440.0000
Orbital Inclination(rad):   0.9704010401
Rate of Right Ascen(r/s):  -0.7817468486E-008
SQRT(A)  (m 1/2):           5153.627930
Right Ascen at Week(rad):   0.2665375134E+001
Argument of Perigee(rad):  -1.333813897
Mean Anom(rad):             0.8115642205E+000
Af0(s):                     0.7162094116E-003
Af1(s/s):                   0.0000000000E+000
week:                        255

******** Week 255 almanac for PRN-18 ********
ID:                         18
Health:                     000
Eccentricity:               0.3852844238E-002
Time of Applicability(s):  61440.0000
Orbital Inclination(rad):   0.9747333374
Rate of Right Ascen(r/s):  -0.7611745631E-008
SQRT(A)  (m 1/2):           5153.582520
Right Ascen at Week(rad):  -0.2613941462E+001
Argument of Perigee(rad):  -3.025495849
Mean Anom(rad):            -0.1251235846E+001
Af0(s):                    -0.5636215210E-003
Af1(s/s):                  -0.7275957614E-011
week:                        255

